NORAD_CAT_ID,OBJECT_NAME,OBJECT_TYPE,EPOCH,MEAN_MOTION,ECCENTRICITY,INCLINATION,RA_OF_ASC_NODE,ARG_OF_PERICENTER,MEAN_ANOMALY,BSTAR,MEAN_MOTION_DOT,MEAN_MOTION_DDOT,TLE_LINE0,TLE_LINE1,TLE_LINE2,SEMIMAJOR_AXIS,PERIOD,APOGEE,PERIGEE,DECAYED
52371.0,STARLINK-3798,PAYLOAD,2022-06-16 02:00:01,15.73231957,0.000297,53.2138,202.6658,15.3108,290.7155,-0.00012591,-0.00018284,0.0,0 STARLINK-3798,1 52371U 22045AS  22167.08334491 -.00018284  00000-0 -12591-3 0  9997,2 52371  53.2138 202.6658 0002970  15.3108 290.7155 15.73231957  1303,6727.804,91.531,351.667,347.671,0.0
52371.0,STARLINK-3798,PAYLOAD,2022-06-19 14:00:01,15.73289874,0.0003123999999999,53.2139,185.3476,13.3977,326.2999,-0.00061802,-0.00086827,0.0,0 STARLINK-3798,1 52371U 22045AS  22170.58334491 -.00086827  00000-0 -61802-3 0  9993,2 52371  53.2139 185.3476 0003124  13.3977 326.2999 15.73289874  1305,6727.639,91.528,351.606,347.402,0.0
52371.0,STARLINK-3798,PAYLOAD,2022-06-19 20:00:01,15.73197975,0.0002946,53.2144,184.1086,17.0261,299.436,0.00023399,0.00032346,0.0,0 STARLINK-3798,1 52371U 22045AS  22170.83334491  .00032346  00000-0  23399-3 0  9995,2 52371  53.2144 184.1086 0002946  17.0261 299.4360 15.73197975 10553,6727.901,91.533,351.74800000000016,347.784,0.0
52371.0,STARLINK-3798,PAYLOAD,2022-06-19 22:00:00,15.73173291,0.0002923,53.2143,183.6958,17.7638,50.9421,0.00065966,0.00092894,0.0,0 STARLINK-3798,1 52371U 22045AS  22170.91667824  .00092894  00000-0  65966-3 0  9993,2 52371  53.2143 183.6958 0002923  17.7638  50.9421 15.73173291  1300,6727.971,91.535,351.80300000000005,347.87,0.0
52371.0,STARLINK-3798,PAYLOAD,2022-06-20 14:00:01,15.73252011,0.0003099,53.2137,180.3985,13.7926,232.8268,-0.00075349,-0.00105323,0.0,0 STARLINK-3798,1 52371U 22045AS  22171.58334491 -.00105323  00000-0 -75349-3 0  9998,2 52371  53.2137 180.3985 0003099  13.7926 232.8268 15.73252011 10676,6727.746999999999,91.53,351.69699999999995,347.527,0.0
52371.0,STARLINK-3798,PAYLOAD,2022-06-20 22:00:00,15.73147965,0.0002791,53.2139,178.747,12.6831,322.8919,0.00068792,0.00096839,0.0,0 STARLINK-3798,1 52371U 22045AS  22171.91667824  .00096839  00000-0  68792-3 0  9997,2 52371  53.2139 178.7470 0002791  12.6831 322.8919 15.73147965 10729,6728.044,91.536,351.786,348.031,0.0
52371.0,STARLINK-3798,PAYLOAD,2022-06-21 14:00:01,15.72987476,0.0002741,53.2162,175.4478,9.7373,143.7509,0.002153,0.00310145,0.0,0 STARLINK-3798,1 52371U 22045AS  22172.58334491  .00310145  00000-0  21530-2 0  9999,2 52371  53.2162 175.4478 0002741   9.7373 143.7509 15.72987476 10835,6728.501,91.546,352.21,348.522,0.0
52371.0,STARLINK-3798,PAYLOAD,2022-06-21 22:00:00,15.73226093,0.0002814,53.2143,173.7982,12.661,229.7356,-3.8561e-05,-6.038e-05,0.0,0 STARLINK-3798,1 52371U 22045AS  22172.91667824 -.00006038  00000-0 -38561-4 0  9994,2 52371  53.2143 173.7982 0002814  12.6610 229.7356 15.73226093  1302,6727.821,91.532,351.579,347.793,0.0
52371.0,STARLINK-3798,PAYLOAD,2022-06-22 06:00:00,15.73197889,0.0003078999999999,53.2142,172.1505,16.2605,315.0928,0.00018056,0.00024795,0.0,0 STARLINK-3798,1 52371U 22045AS  22173.25001157  .00024795  00000-0  18056-3 0  9997,2 52371  53.2142 172.1505 0003079  16.2605 315.0928 15.73197889 10936,6727.901,91.533,351.838,347.695,0.0
52371.0,STARLINK-3798,PAYLOAD,2022-06-22 14:00:01,15.73200033,0.0003044,53.2136,170.5009,18.598,41.6224,-0.00066978,-0.00093611,0.0,0 STARLINK-3798,1 52371U 22045AS  22173.58334491 -.00093611  00000-0 -66978-3 0  9994,2 52371  53.2136 170.5009 0003044  18.5980  41.6224 15.73200033  1301,6727.895,91.533,351.80800000000005,347.712,0.0
52371.0,STARLINK-3798,PAYLOAD,2022-06-22 16:00:00,15.73182605,0.0002952,53.2137,170.088,19.1791,153.2702,-0.00057583,-0.00080628,0.0,0 STARLINK-3798,1 52371U 22045AS  22173.66667824 -.00080628  00000-0 -57583-3 0  9998,2 52371  53.2137 170.0880 0002952  19.1791 153.2702 15.73182605 11001,6727.945,91.534,351.796,347.824,0.0
52371.0,STARLINK-3798,PAYLOAD,2022-06-22 22:00:00,15.73145663,0.0002757,53.2137,168.8498,21.8958,127.2237,-0.00012225,-0.00017706,0.0,0 STARLINK-3798,1 52371U 22045AS  22173.91667824 -.00017706  00000-0 -12225-3 0  9997,2 52371  53.2137 168.8498 0002757  21.8958 127.2237 15.73145663  1308,6728.05,91.536,351.77,348.06,0.0
52371.0,STARLINK-3798,PAYLOAD,2022-06-23 06:00:00,15.73110337,0.0003019,53.2138,167.2025,23.071,214.8995,0.00034262,0.00047559,0.0,0 STARLINK-3798,1 52371U 22045AS  22174.25001157  .00047559  00000-0  34262-3 0  9998,2 52371  53.2138 167.2025 0003019  23.0710 214.8995 15.73110337 11091,6728.151,91.538,352.047,347.985,0.0
52371.0,STARLINK-3798,PAYLOAD,2022-06-23 14:00:01,15.7317074,0.000297,53.2138,165.5527,19.794,307.0015,0.00072564,0.00102353,0.0,0 STARLINK-3798,1 52371U 22045AS  22174.58334491  .00102353  00000-0  72564-3 0  9995,2 52371  53.2138 165.5527 0002970  19.7940 307.0015 15.73170740  1306,6727.979,91.535,351.842,347.845,0.0
52371.0,STARLINK-3798,PAYLOAD,2022-06-23 22:00:00,15.73232468,0.0002751,53.2141,163.9013,21.3308,34.3971,0.00049803,0.00069965,0.0,0 STARLINK-3798,1 52371U 22045AS  22174.91667824  .00069965  00000-0  49803-3 0  9992,2 52371  53.2141 163.9013 0002751  21.3308  34.3971 15.73232468 11203,6727.803000000001,91.531,351.51800000000014,347.81699999999995,0.0
52371.0,STARLINK-3798,PAYLOAD,2022-06-24 06:00:02,15.73267524,0.0002959,53.2139,162.2536,18.507,126.2835,-0.00035126,-0.00049784,0.0,0 STARLINK-3798,1 52371U 22045AS  22175.25002315 -.00049784  00000-0 -35126-3 0  9990,2 52371  53.2139 162.2536 0002959  18.5070 126.2835 15.73267524 11252,6727.703,91.529,351.55800000000005,347.577,0.0
52371.0,STARLINK-3798,PAYLOAD,2022-06-24 14:00:01,15.7320636,0.0002585,53.2172,160.6004,20.1312,213.6335,-3.2084e-05,-5.124e-05,0.0,0 STARLINK-3798,1 52371U 22045AS  22175.58334491 -.00005124  00000-0 -32084-4 0  9990,2 52371  53.2172 160.6004 0002585  20.1312 213.6335 15.73206360  1306,6727.877,91.533,351.481,348.00300000000016,0.0
52371.0,STARLINK-3798,PAYLOAD,2022-06-24 22:00:01,15.73254864,0.000257,53.2136,158.9521,17.0907,305.7219,-0.00017854,-0.00025666,0.0,0 STARLINK-3798,1 52371U 22045AS  22175.91668981 -.00025666  00000-0 -17854-3 0  9991,2 52371  53.2136 158.9521 0002570  17.0907 305.7219 15.73254864 11351,6727.739000000001,91.53,351.333,347.875,0.0
52371.0,STARLINK-3798,PAYLOAD,2022-06-25 14:00:01,15.73216468,0.0002733,53.2137,155.6541,10.8539,129.8416,-5.6887e-05,-8.605e-05,0.0,0 STARLINK-3798,1 52371U 22045AS  22176.58334491 -.00008605  00000-0 -56887-4 0  9995,2 52371  53.2137 155.6541 0002733  10.8539 129.8416 15.73216468  1307,6727.848000000001,91.532,351.552,347.875,0.0
52371.0,STARLINK-3798,PAYLOAD,2022-06-25 22:00:00,15.73214113,0.00026,53.2141,154.003,16.3755,213.2711,-0.00011904,-0.00017307,0.0,0 STARLINK-3798,1 52371U 22045AS  22176.91667824 -.00017307  00000-0 -11904-3 0  9990,2 52371  53.2141 154.0030 0002600  16.3755 213.2711 15.73214113  1303,6727.855,91.532,351.469,347.971,0.0
52371.0,STARLINK-3798,PAYLOAD,2022-06-26 06:00:00,15.7319091,0.0002896,53.214,152.3555,18.4602,300.1283,0.00030319,0.00042133,0.0,0 STARLINK-3798,1 52371U 22045AS  22177.25001157  .00042133  00000-0  30319-3 0  9993,2 52371  53.2140 152.3555 0002896  18.4602 300.1283 15.73190910 11563,6727.920999999999,91.534,351.7340000000001,347.838,0.0
52371.0,STARLINK-3798,PAYLOAD,2022-06-26 14:00:01,15.7328685,0.0002768,53.2136,150.705,16.4767,31.1296,-0.00075864,-0.00106178,0.0,0 STARLINK-3798,1 52371U 22045AS  22177.58335648 -.00106178  00000-0 -75864-3 0  9990,2 52371  53.2136 150.7050 0002768  16.4767  31.1296 15.73286850  1303,6727.648,91.528,351.375,347.65,0.0
52371.0,STARLINK-3798,PAYLOAD,2022-06-26 20:00:01,15.73193713,0.0002551,53.2137,149.4666,18.3962,5.8956,-4.0003e-05,-6.231e-05,0.0,0 STARLINK-3798,1 52371U 22045AS  22177.83334491 -.00006231  00000-0 -40003-4 0  9990,2 52371  53.2137 149.4666 0002551  18.3962   5.8956 15.73193713 11666,6727.913000000001,91.534,351.494,348.06199999999984,0.0
52371.0,STARLINK-3798,PAYLOAD,2022-06-26 22:00:00,15.7319139,0.0002537,53.2139,149.0544,19.4484,117.073,1.5306e-05,1.526e-05,0.0,0 STARLINK-3798,1 52371U 22045AS  22177.91667824  .00001526  00000-0  15306-4 0  9996,2 52371  53.2139 149.0544 0002537  19.4484 117.0730 15.73191390  1309,6727.92,91.534,351.492,348.07800000000015,0.0
52371.0,STARLINK-3798,PAYLOAD,2022-06-27 06:00:00,15.7315976,0.0002808,53.214,147.407,17.4799,207.9555,-0.00012236,-0.00017732,0.0,0 STARLINK-3798,1 52371U 22045AS  22178.25001157 -.00017732  00000-0 -12236-3 0  9991,2 52371  53.2140 147.4070 0002808  17.4799 207.9555 15.73159760 11721,6728.01,91.536,351.764,347.986,0.0
52371.0,STARLINK-3798,PAYLOAD,2022-06-27 14:00:01,15.73310597,0.0002585,53.2151,145.7549,10.8693,303.4712,-0.0028169,-0.00380522,0.0,0 STARLINK-3798,1 52371U 22045AS  22178.58334491 -.00380522  00000-0 -28169-2 0  9998,2 52371  53.2151 145.7549 0002585  10.8693 303.4712 15.73310597 11776,6727.58,91.527,351.184,347.706,0.0
52371.0,STARLINK-3798,PAYLOAD,2022-06-27 22:00:00,15.732315300000002,0.0002523,53.2146,144.1056,18.6822,24.5926,-0.00031077,-0.00044075,0.0,0 STARLINK-3798,1 52371U 22045AS  22178.91667824 -.00044075  00000-0 -31077-3 0  9997,2 52371  53.2146 144.1056 0002523  18.6822  24.5926 15.73231530 11832,6727.805,91.531,351.36800000000005,347.973,0.0
52371.0,STARLINK-3798,PAYLOAD,2022-06-28 06:00:00,15.73146784,0.0002798,53.2147,142.4583,15.7983,116.4106,0.0003375,0.00046908,0.0,0 STARLINK-3798,1 52371U 22045AS  22179.25001157  .00046908  00000-0  33750-3 0  9991,2 52371  53.2147 142.4583 0002798  15.7983 116.4106 15.73146784 11881,6728.047,91.536,351.7940000000001,348.029,0.0
52371.0,STARLINK-3798,PAYLOAD,2022-06-28 14:00:01,15.73212591,0.0002696,53.2144,140.8076,18.5846,202.4984,-0.00082561,-0.00115009,0.0,0 STARLINK-3798,1 52371U 22045AS  22179.58334491 -.00115009  00000-0 -82561-3 0  9992,2 52371  53.2144 140.8076 0002696  18.5846 202.4984 15.73212591  1309,6727.859,91.532,351.538,347.91,0.0
